[Satellite]
VERSION=1.1
NAME=FLOCK 2P-12
NICKNAME=FLOCK 2P-12
TLE1=1 41614U 16040R   18020.79422804  .00001542  00000-0  66948-4 0  9993
TLE2=2 41614  97.4368  87.0549 0011444  47.3109 312.9090 15.23788763 87791
